start=new Date('2022-05-10T00:00:00.000Z').valueOf();
sats=[{"FILE":"3438010","APOAPSIS":"541.120","NORAD_CAT_ID":"49763","REV_AT_EPOCH":"357","RA_OF_ASC_NODE":"302.9237","TLE_LINE1":"1 49763U 21115AR  22129.91667824  .00049283  00000-0  30957-2 0  9990","TIME_SYSTEM":"UTC","EPHEMERIS_TYPE":"0","CENTER_NAME":"EARTH","MEAN_ANOMALY":"334.4766","ECCENTRICITY":"0.00018490","INCLINATION":"53.2197","MEAN_MOTION_DDOT":"0.0000000000000","PERIAPSIS":"538.562","SEMIMAJOR_AXIS":"6917.976","BSTAR":"0.00309570000000","DECAY_DATE":null,"OBJECT_TYPE":"PAYLOAD","ELEMENT_SET_NO":"999","ARG_OF_PERICENTER":"46.0936","MEAN_MOTION":"15.08808629","PERIOD":"95.440","RCS_SIZE":"LARGE","MEAN_MOTION_DOT":"0.00049283","GP_ID":"203142979","CLASSIFICATION_TYPE":"U","MEAN_ELEMENT_THEORY":"SGP4","TLE_LINE2":"2 49763  53.2197 302.9237 0001849  46.0936 334.4766 15.08808629  3579","REF_FRAME":"TEME","SITE":"AFETR","LAUNCH_DATE":"2021-12-02","OBJECT_NAME":"STARLINK-3198","EPOCH":"2022-05-09T22:00:00.999936","COUNTRY_CODE":"US","OBJECT_ID":"2021-115AR"},{"TLE_LINE2":"2 49764  53.2179 302.9448 0001700  49.1685 231.3986 15.08811945  3568","OBJECT_NAME":"STARLINK-3206","SITE":"AFETR","LAUNCH_DATE":"2021-12-02","REF_FRAME":"TEME","OBJECT_ID":"2021-115AS","COUNTRY_CODE":"US","EPOCH":"2022-05-09T22:00:00.999936","MEAN_MOTION":"15.08811945","ARG_OF_PERICENTER":"49.1685","ELEMENT_SET_NO":"999","OBJECT_TYPE":"PAYLOAD","DECAY_DATE":null,"GP_ID":"203143733","MEAN_ELEMENT_THEORY":"SGP4","CLASSIFICATION_TYPE":"U","PERIOD":"95.439","MEAN_MOTION_DOT":"0.00045267","RCS_SIZE":"LARGE","INCLINATION":"53.2179","ECCENTRICITY":"0.00017000","PERIAPSIS":"538.655","SEMIMAJOR_AXIS":"6917.966","BSTAR":"0.00284630000000","MEAN_MOTION_DDOT":"0.0000000000000","APOAPSIS":"541.007","NORAD_CAT_ID":"49764","REV_AT_EPOCH":"356","FILE":"3438010","EPHEMERIS_TYPE":"0","TIME_SYSTEM":"UTC","MEAN_ANOMALY":"231.3986","CENTER_NAME":"EARTH","RA_OF_ASC_NODE":"302.9448","TLE_LINE1":"1 49764U 21115AS  22129.91667824  .00045267  00000-0  28463-2 0  9998"},{"TLE_LINE1":"1 49765U 21115AT  22129.91667824  .00048850  00000-0  30691-2 0  9996","RA_OF_ASC_NODE":"302.9341","MEAN_ANOMALY":"293.8400","CENTER_NAME":"EARTH","EPHEMERIS_TYPE":"0","TIME_SYSTEM":"UTC","FILE":"3438010","REV_AT_EPOCH":"356","APOAPSIS":"541.147","NORAD_CAT_ID":"49765","MEAN_MOTION_DDOT":"0.0000000000000","BSTAR":"0.00306910000000","PERIAPSIS":"538.554","SEMIMAJOR_AXIS":"6917.985","ECCENTRICITY":"0.00018740","INCLINATION":"53.2187","MEAN_MOTION_DOT":"0.00048850","RCS_SIZE":"LARGE","PERIOD":"95.440","MEAN_ELEMENT_THEORY":"SGP4","CLASSIFICATION_TYPE":"U","GP_ID":"203144470","OBJECT_TYPE":"PAYLOAD","DECAY_DATE":null,"MEAN_MOTION":"15.08805712","ARG_OF_PERICENTER":"46.6757","ELEMENT_SET_NO":"999","COUNTRY_CODE":"US","EPOCH":"2022-05-09T22:00:00.999936","OBJECT_ID":"2021-115AT","SITE":"AFETR","OBJECT_NAME":"STARLINK-3227","LAUNCH_DATE":"2021-12-02","REF_FRAME":"TEME","TLE_LINE2":"2 49765  53.2187 302.9341 0001874  46.6757 293.8400 15.08805712  3563"},{"TLE_LINE2":"2 49766  53.2185 302.9445 0001887  40.3902 220.1794 15.08810580  3562","SITE":"AFETR","LAUNCH_DATE":"2021-12-02","OBJECT_NAME":"STARLINK-3190","REF_FRAME":"TEME","OBJECT_ID":"2021-115AU","COUNTRY_CODE":"US","EPOCH":"2022-05-09T22:00:00.999936","ARG_OF_PERICENTER":"40.3902","MEAN_MOTION":"15.08810580","ELEMENT_SET_NO":"999","OBJECT_TYPE":"PAYLOAD","DECAY_DATE":null,"GP_ID":"203143232","MEAN_ELEMENT_THEORY":"SGP4","CLASSIFICATION_TYPE":"U","PERIOD":"95.439","RCS_SIZE":"LARGE","MEAN_MOTION_DOT":"0.00054367","INCLINATION":"53.2185","ECCENTRICITY":"0.00018870","SEMIMAJOR_AXIS":"6917.970","PERIAPSIS":"538.530","BSTAR":"0.00341060000000","MEAN_MOTION_DDOT":"0.0000000000000","NORAD_CAT_ID":"49766","APOAPSIS":"541.141","REV_AT_EPOCH":"356","FILE":"3438010","EPHEMERIS_TYPE":"0","TIME_SYSTEM":"UTC","MEAN_ANOMALY":"220.1794","CENTER_NAME":"EARTH","RA_OF_ASC_NODE":"302.9445","TLE_LINE1":"1 49766U 21115AU  22129.91667824  .00054367  00000-0  34106-2 0  9992"},{"TLE_LINE2":"2 49767  53.2194 302.5680 0001745  46.5771 346.8557 15.08830819 25480","SITE":"AFETR","OBJECT_NAME":"STARLINK-3192","LAUNCH_DATE":"2021-12-02","REF_FRAME":"TEME","COUNTRY_CODE":"US","EPOCH":"2022-05-10T00:00:00.999648","OBJECT_ID":"2021-115AV","DECAY_DATE":null,"OBJECT_TYPE":"PAYLOAD","MEAN_MOTION":"15.08830819","ARG_OF_PERICENTER":"46.5771","ELEMENT_SET_NO":"999","PERIOD":"95.438","RCS_SIZE":"LARGE","MEAN_MOTION_DOT":"0.00023364","GP_ID":"203119494","MEAN_ELEMENT_THEORY":"SGP4","CLASSIFICATION_TYPE":"U","ECCENTRICITY":"0.00017450","INCLINATION":"53.2194","MEAN_MOTION_DDOT":"0.0000000000000","SEMIMAJOR_AXIS":"6917.908","PERIAPSIS":"538.566","BSTAR":"0.00148160000000","FILE":"3437967","NORAD_CAT_ID":"49767","APOAPSIS":"540.981","REV_AT_EPOCH":"2548","RA_OF_ASC_NODE":"302.5680","TLE_LINE1":"1 49767U 21115AV  22130.00001157  .00023364  00000-0  14816-2 0  9995","EPHEMERIS_TYPE":"0","TIME_SYSTEM":"UTC","MEAN_ANOMALY":"346.8557","CENTER_NAME":"EARTH"},{"OBJECT_NAME":"STARLINK-3196","SITE":"AFETR","LAUNCH_DATE":"2021-12-02","REF_FRAME":"TEME","TLE_LINE2":"2 49768  53.2168 302.5730 0001816  54.3023 259.1216 15.08832465 25481","COUNTRY_CODE":"US","EPOCH":"2022-05-10T00:00:00.999648","OBJECT_ID":"2021-115AW","DECAY_DATE":null,"OBJECT_TYPE":"PAYLOAD","MEAN_MOTION":"15.08832465","ARG_OF_PERICENTER":"54.3023","ELEMENT_SET_NO":"999","RCS_SIZE":"LARGE","MEAN_MOTION_DOT":"0.00022515","PERIOD":"95.438","MEAN_ELEMENT_THEORY":"SGP4","CLASSIFICATION_TYPE":"U","GP_ID":"203119477","ECCENTRICITY":"0.00018160","INCLINATION":"53.2168","MEAN_MOTION_DDOT":"0.0000000000000","BSTAR":"0.00142850000000","SEMIMAJOR_AXIS":"6917.903","PERIAPSIS":"538.512","FILE":"3437969","REV_AT_EPOCH":"2548","NORAD_CAT_ID":"49768","APOAPSIS":"541.025","TLE_LINE1":"1 49768U 21115AW  22130.00001157  .00022515  00000-0  14285-2 0  9993","RA_OF_ASC_NODE":"302.5730","MEAN_ANOMALY":"259.1216","CENTER_NAME":"EARTH","EPHEMERIS_TYPE":"0","TIME_SYSTEM":"UTC"},{"OBJECT_ID":"2021-115AX","EPOCH":"2022-05-09T22:00:00.999936","COUNTRY_CODE":"US","REF_FRAME":"TEME","SITE":"AFETR","OBJECT_NAME":"STARLINK-3208","LAUNCH_DATE":"2021-12-02","TLE_LINE2":"2 49769  53.2189 302.9460 0001937  37.2208 203.3285 15.08809143  3567","CLASSIFICATION_TYPE":"U","MEAN_ELEMENT_THEORY":"SGP4","GP_ID":"203143971","MEAN_MOTION_DOT":"0.00047075","RCS_SIZE":"LARGE","PERIOD":"95.440","ELEMENT_SET_NO":"999","MEAN_MOTION":"15.08809143","ARG_OF_PERICENTER":"37.2208","OBJECT_TYPE":"PAYLOAD","DECAY_DATE":null,"BSTAR":"0.00295870000000","PERIAPSIS":"538.500","SEMIMAJOR_AXIS":"6917.975","MEAN_MOTION_DDOT":"0.0000000000000","INCLINATION":"53.2189","ECCENTRICITY":"0.00019370","CENTER_NAME":"EARTH","MEAN_ANOMALY":"203.3285","TIME_SYSTEM":"UTC","EPHEMERIS_TYPE":"0","TLE_LINE1":"1 49769U 21115AX  22129.91667824  .00047075  00000-0  29587-2 0  9990","RA_OF_ASC_NODE":"302.9460","REV_AT_EPOCH":"356","APOAPSIS":"541.180","NORAD_CAT_ID":"49769","FILE":"3438010"},{"FILE":"3438010","REV_AT_EPOCH":"356","NORAD_CAT_ID":"49770","APOAPSIS":"541.262","TLE_LINE1":"1 49770U 21115AY  22129.91667824  .00055518  00000-0  34819-2 0  9997","RA_OF_ASC_NODE":"302.9569","MEAN_ANOMALY":"157.3916","CENTER_NAME":"EARTH","EPHEMERIS_TYPE":"0","TIME_SYSTEM":"UTC","ECCENTRICITY":"0.00020600","INCLINATION":"53.2171","MEAN_MOTION_DDOT":"0.0000000000000","BSTAR":"0.00348190000000","PERIAPSIS":"538.412","SEMIMAJOR_AXIS":"6917.972","OBJECT_TYPE":"PAYLOAD","DECAY_DATE":null,"ARG_OF_PERICENTER":"43.1710","MEAN_MOTION":"15.08809912","ELEMENT_SET_NO":"999","MEAN_MOTION_DOT":"0.00055518","RCS_SIZE":"LARGE","PERIOD":"95.439","MEAN_ELEMENT_THEORY":"SGP4","CLASSIFICATION_TYPE":"U","GP_ID":"203142733","SITE":"AFETR","OBJECT_NAME":"STARLINK-3191","LAUNCH_DATE":"2021-12-02","REF_FRAME":"TEME","TLE_LINE2":"2 49770  53.2171 302.9569 0002060  43.1710 157.3916 15.08809912  3565","COUNTRY_CODE":"US","EPOCH":"2022-05-09T22:00:00.999936","OBJECT_ID":"2021-115AY"},{"ECCENTRICITY":"0.00018600","INCLINATION":"53.2154","MEAN_MOTION_DDOT":"0.0000000000000","SEMIMAJOR_AXIS":"6917.923","PERIAPSIS":"538.501","BSTAR":"0.00079786000000","FILE":"3438010","NORAD_CAT_ID":"49771","APOAPSIS":"541.074","REV_AT_EPOCH":"356","RA_OF_ASC_NODE":"302.9550","TLE_LINE1":"1 49771U 21115AZ  22129.91667824  .00012428  00000-0  79786-3 0  9994","TIME_SYSTEM":"UTC","EPHEMERIS_TYPE":"0","CENTER_NAME":"EARTH","MEAN_ANOMALY":"135.7369","TLE_LINE2":"2 49771  53.2154 302.9550 0001860  44.8343 135.7369 15.08826210  3566","REF_FRAME":"TEME","LAUNCH_DATE":"2021-12-02","SITE":"AFETR","OBJECT_NAME":"STARLINK-3201","EPOCH":"2022-05-09T22:00:00.999936","COUNTRY_CODE":"US","OBJECT_ID":"2021-115AZ","DECAY_DATE":null,"OBJECT_TYPE":"PAYLOAD","ELEMENT_SET_NO":"999","MEAN_MOTION":"15.08826210","ARG_OF_PERICENTER":"44.8343","PERIOD":"95.438","MEAN_MOTION_DOT":"0.00012428","RCS_SIZE":"LARGE","GP_ID":"203142980","CLASSIFICATION_TYPE":"U","MEAN_ELEMENT_THEORY":"SGP4"},{"DECAY_DATE":null,"OBJECT_TYPE":"PAYLOAD","ARG_OF_PERICENTER":"43.1368","MEAN_MOTION":"15.08865027","ELEMENT_SET_NO":"999","RCS_SIZE":"LARGE","MEAN_MOTION_DOT":"-0.00037734","PERIOD":"95.436","MEAN_ELEMENT_THEORY":"SGP4","CLASSIFICATION_TYPE":"U","GP_ID":"203142760","SITE":"AFWTR","LAUNCH_DATE":"2021-12-18","OBJECT_NAME":"STARLINK-3317","REF_FRAME":"TEME","TLE_LINE2":"2 50156  53.2176  52.9356 0002139  43.1368  47.2077 15.08865027  3599","COUNTRY_CODE":"US","EPOCH":"2022-05-09T22:00:00.999936","OBJECT_ID":"2021-125A","FILE":"3438010","REV_AT_EPOCH":"359","APOAPSIS":"541.149","NORAD_CAT_ID":"50156","TLE_LINE1":"1 50156U 21125A   22129.91667824 -.00037734  00000-0 -23635-2 0  9994","RA_OF_ASC_NODE":"52.9356","MEAN_ANOMALY":"47.2077","CENTER_NAME":"EARTH","EPHEMERIS_TYPE":"0","TIME_SYSTEM":"UTC","ECCENTRICITY":"0.00021390","INCLINATION":"53.2176","MEAN_MOTION_DDOT":"0.0000000000000","BSTAR":"-0.00236350000000","SEMIMAJOR_AXIS":"6917.804","PERIAPSIS":"538.189"}];
